[{"OBJECT_NAME":"GRUS-1C","OBJECT_ID":"2021-022B","EPOCH":"2026-03-09T22:02:59.067744","MEAN_MOTION":14.98740486,"ECCENTRICITY":0.00125084,"INCLINATION":97.5524,"RA_OF_ASC_NODE":315.2446,"ARG_OF_PERICENTER":300.8214,"MEAN_ANOMALY":59.1778,"EPHEMERIS_TYPE":0,"CLASSIFICATION_TYPE":"U","NORAD_CAT_ID":47933,"ELEMENT_SET_NO":999,"REV_AT_EPOCH":27103,"BSTAR":0.00015887452,"MEAN_MOTION_DOT":1.857e-5,"MEAN_MOTION_DDOT":0},{"OBJECT_NAME":"ICEYE-X50","OBJECT_ID":"2025-052AX","EPOCH":"2026-03-09T23:21:07.900704","MEAN_MOTION":14.94907916,"ECCENTRICITY":0.00023707,"INCLINATION":97.7003,"RA_OF_ASC_NODE":322.7375,"ARG_OF_PERICENTER":140.471,"MEAN_ANOMALY":219.6684,"EPHEMERIS_TYPE":0,"CLASSIFICATION_TYPE":"U","NORAD_CAT_ID":63255,"ELEMENT_SET_NO":999,"REV_AT_EPOCH":5382,"BSTAR":0.00028014497,"MEAN_MOTION_DOT":2.999e-5,"MEAN_MOTION_DDOT":0}]
